{"type": "FeatureCollection", "features": [ {"type": "Feature", "properties": {"norad_id": 31955, "name": "FENGYUN 1C DEB", "group": "fengyun-1c-debris", "lat": -29.22563360274807, "lon": -115.82972672308367, "alt_km": 715.9601093162055, "timestamp": "2025-12-26T09:30:53.923422+00:00", "meta": {"OBJECT_NAME": "FENGYUN 1C DEB", "OBJECT_ID": "1999-025CNG", "EPOCH": "2025-12-21T21:41:07.179648", "MEAN_MOTION": 14.64028697, "ECCENTRICITY": 0.00435771, "INCLINATION": 99.2807, "RA_OF_ASC_NODE": 233.8648, "ARG_OF_PERICENTER": 152.6411, "MEAN_ANOMALY": 271.1392, "EPHEMERIS_TYPE": 0, "CLASSIFICATION_TYPE": "U", "NORAD_CAT_ID": 31955, "ELEMENT_SET_NO": 999, "REV_AT_EPOCH": 96691, "BSTAR": 0.0014947189, "MEAN_MOTION_DOT": 7.894e-05, "MEAN_MOTION_DDOT": 0}, "tle": {"line1": "1 31955U 99025CNG 25355.90355532  .00007894  00000+0  14947-2 0  9994", "line2": "2 31955  99.2807 233.8648 0043577 152.6411 271.1392 14.64028697966913"}}, "geometry": {"type": "Point", "coordinates": [-115.82972672308367, -29.22563360274807]}}, {"type": "Feature", "properties": {"norad_id": 31959, "name": "FENGYUN 1C DEB", "group": "fengyun-1c-debris", "lat": -74.46927182326479, "lon": 18.86933537434751, "alt_km": 758.544255352771, "timestamp": "2025-12-26T09:30:53.923433+00:00", "meta": {"OBJECT_NAME": "FENGYUN 1C DEB", "OBJECT_ID": "1999-025CNL", "EPOCH": "2025-12-21T22:06:57.352032", "MEAN_MOTION": 14.46896532, "ECCENTRICITY": 0.00273534, "INCLINATION": 98.5099, "RA_OF_ASC_NODE": 226.9733, "ARG_OF_PERICENTER": 126.577, "MEAN_ANOMALY": 233.7945, "EPHEMERIS_TYPE": 0, "CLASSIFICATION_TYPE": "U", "NORAD_CAT_ID": 31959, "ELEMENT_SET_NO": 999, "REV_AT_EPOCH": 64486, "BSTAR": 0.0023827795, "MEAN_MOTION_DOT": 8.652e-05, "MEAN_MOTION_DDOT": 0}, "tle": {"line1": "1 31959U 99025CNL 25355.92149713  .00008652  00000+0  23828-2 0  9993", "line2": "2 31959  98.5099 226.9733 0027353 126.5770 233.7945 14.46896532644868"}}, "geometry": {"type": "Point", "coordinates": [18.86933537434751, -74.46927182326479]}}, {"type": "Feature", "properties": {"norad_id": 31964, "name": "FENGYUN 1C DEB", "group": "fengyun-1c-debris", "lat": -73.13455037398829, "lon": -85.67112886126401, "alt_km": 704.972646494627, "timestamp": "2025-12-26T09:30:53.923443+00:00", "meta": {"OBJECT_NAME": "FENGYUN 1C DEB", "OBJECT_ID": "1999-025CNR", "EPOCH": "2025-12-23T02:58:25.746240", "MEAN_MOTION": 14.58706281, "ECCENTRICITY": 0.00284078, "INCLINATION": 98.7007, "RA_OF_ASC_NODE": 121.2429, "ARG_OF_PERICENTER": 357.3424, "MEAN_ANOMALY": 2.7619, "EPHEMERIS_TYPE": 0, "CLASSIFICATION_TYPE": "U", "NORAD_CAT_ID": 31964, "ELEMENT_SET_NO": 999, "REV_AT_EPOCH": 67661, "BSTAR": 0.0025118016, "MEAN_MOTION_DOT": 0.0001175, "MEAN_MOTION_DDOT": 0}, "tle": {"line1": "1 31964U 99025CNR 25357.12390910  .00011750  00000+0  25118-2 0  9997", "line2": "2 31964  98.7007 121.2429 0028407 357.3424   2.7619 14.58706281676619"}}, "geometry": {"type": "Point", "coordinates": [-85.67112886126401, -73.13455037398829]}}, {"type": "Feature", "properties": {"norad_id": 31966, "name": "FENGYUN 1C DEB", "group": "fengyun-1c-debris", "lat": -42.33592025207935, "lon": 162.68334980870443, "alt_km": 668.5663330055359, "timestamp": "2025-12-26T09:30:53.923477+00:00", "meta": {"OBJECT_NAME": "FENGYUN 1C DEB", "OBJECT_ID": "1999-025CNT", "EPOCH": "2025-12-24T05:21:16.195104", "MEAN_MOTION": 14.67701471, "ECCENTRICITY": 0.00860415, "INCLINATION": 99.0179, "RA_OF_ASC_NODE": 151.9727, "ARG_OF_PERICENTER": 239.292, "MEAN_ANOMALY": 119.9784, "EPHEMERIS_TYPE": 0, "CLASSIFICATION_TYPE": "U", "NORAD_CAT_ID": 31966, "ELEMENT_SET_NO": 999, "REV_AT_EPOCH": 65911, "BSTAR": 0.0014485658, "MEAN_MOTION_DOT": 8.665e-05, "MEAN_MOTION_DDOT": 0}, "tle": {"line1": "1 31966U 99025CNT 25358.22310411  .00008665  00000+0  14486-2 0  9996", "line2": "2 31966  99.0179 151.9727 0086041 239.2920 119.9784 14.67701471659119"}}, "geometry": {"type": "Point", "coordinates": [162.68334980870443, -42.33592025207935]}}, {"type": "Feature", "properties": {"norad_id": 31972, "name": "FENGYUN 1C DEB", "group": "fengyun-1c-debris", "lat": -72.88375687691718, "lon": 74.10060695051398, "alt_km": 855.2920387819267, "timestamp": "2025-12-26T09:30:53.923501+00:00", "meta": {"OBJECT_NAME": "FENGYUN 1C DEB", "OBJECT_ID": "1999-025CNZ", "EPOCH": "2025-12-24T01:42:34.636608", "MEAN_MOTION": 14.07519501, "ECCENTRICITY": 0.00764333, "INCLINATION": 99.21, "RA_OF_ASC_NODE": 39.9378, "ARG_OF_PERICENTER": 0.4023, "MEAN_ANOMALY": 29.3212, "EPHEMERIS_TYPE": 0, "CLASSIFICATION_TYPE": "U", "NORAD_CAT_ID": 31972, "ELEMENT_SET_NO": 999, "REV_AT_EPOCH": 95120, "BSTAR": 0.00020159041, "MEAN_MOTION_DOT": 3.02e-06, "MEAN_MOTION_DDOT": 0}, "tle": {"line1": "1 31972U 99025CNZ 25358.07123422  .00000302  00000+0  20159-3 0  9995", "line2": "2 31972  99.2100  39.9378 0076433   0.4023  29.3212 14.07519501951205"}}, "geometry": {"type": "Point", "coordinates": [74.10060695051398, -72.88375687691718]}}, {"type": "Feature", "properties": {"norad_id": 31974, "name": "FENGYUN 1C DEB", "group": "fengyun-1c-debris", "lat": 38.67713377215149, "lon": 4.229758305267234, "alt_km": 827.195684971025, "timestamp": "2025-12-26T09:30:53.923513+00:00", "meta": {"OBJECT_NAME": "FENGYUN 1C DEB", "OBJECT_ID": "1999-025CPB", "EPOCH": "2025-12-24T23:44:15.961632", "MEAN_MOTION": 14.29664564, "ECCENTRICITY": 0.0071341, "INCLINATION": 98.3795, "RA_OF_ASC_NODE": 9.6517, "ARG_OF_PERICENTER": 266.2671, "MEAN_ANOMALY": 93.0352, "EPHEMERIS_TYPE": 0, "CLASSIFICATION_TYPE": "U", "NORAD_CAT_ID": 31974, "ELEMENT_SET_NO": 999, "REV_AT_EPOCH": 69597, "BSTAR": 0.0024190503, "MEAN_MOTION_DOT": 6.335e-05, "MEAN_MOTION_DDOT": 0}, "tle": {"line1": "1 31974U 99025CPB 25358.98907363  .00006335  00000+0  24191-2 0  9992", "line2": "2 31974  98.3795   9.6517 0071341 266.2671  93.0352 14.29664564695976"}}, "geometry": {"type": "Point", "coordinates": [4.229758305267234, 38.67713377215149]}}, {"type": "Feature", "properties": {"norad_id": 31978, "name": "FENGYUN 1C DEB", "group": "fengyun-1c-debris", "lat": 53.960343801778635, "lon": 141.8608916907124, "alt_km": 870.127699404854, "timestamp": "2025-12-26T09:30:53.923524+00:00", "meta": {"OBJECT_NAME": "FENGYUN 1C DEB", "OBJECT_ID": "1999-025CPF", "EPOCH": "2025-12-18T09:15:01.115712", "MEAN_MOTION": 13.63124115, "ECCENTRICITY": 0.02630419, "INCLINATION": 98.3793, "RA_OF_ASC_NODE": 146.6417, "ARG_OF_PERICENTER": 35.0311, "MEAN_ANOMALY": 326.7827, "EPHEMERIS_TYPE": 0, "CLASSIFICATION_TYPE": "U", "NORAD_CAT_ID": 31978, "ELEMENT_SET_NO": 999, "REV_AT_EPOCH": 91667, "BSTAR": 0.0010168637, "MEAN_MOTION_DOT": 9.73e-06, "MEAN_MOTION_DDOT": 0}, "tle": {"line1": "1 31978U 99025CPF 25352.38542958  .00000973  00000+0  10169-2 0  9991", "line2": "2 31978  98.3793 146.6417 0263041  35.0311 326.7827 13.63124115916678"}}, "geometry": {"type": "Point", "coordinates": [141.8608916907124, 53.960343801778635]}}, {"type": "Feature", "properties": {"norad_id": 31979, "name": "FENGYUN 1C DEB", "group": "fengyun-1c-debris", "lat": -78.8761428164247, "lon": 149.8208341157946, "alt_km": 836.9386831153233, "timestamp": "2025-12-26T09:30:53.923535+00:00", "meta": {"OBJECT_NAME": "FENGYUN 1C DEB", "OBJECT_ID": "1999-025CPG", "EPOCH": "2025-12-24T00:03:02.329056", "MEAN_MOTION": 13.69365262, "ECCENTRICITY": 0.026836, "INCLINATION": 99.3762, "RA_OF_ASC_NODE": 90.3171, "ARG_OF_PERICENTER": 251.8251, "MEAN_ANOMALY": 105.351, "EPHEMERIS_TYPE": 0, "CLASSIFICATION_TYPE": "U", "NORAD_CAT_ID": 31979, "ELEMENT_SET_NO": 999, "REV_AT_EPOCH": 58066, "BSTAR": 0.0034261575, "MEAN_MOTION_DOT": 3.79e-05, "MEAN_MOTION_DDOT": 0}, "tle": {"line1": "1 31979U 99025CPG 25358.00211029  .00003790  00000+0  34262-2 0  9999", "line2": "2 31979  99.3762  90.3171 0268360 251.8251 105.3510 13.69365262580660"}}, "geometry": {"type": "Point", "coordinates": [149.8208341157946, -78.8761428164247]}}, {"type": "Feature", "properties": {"norad_id": 31980, "name": "FENGYUN 1C DEB", "group": "fengyun-1c-debris", "lat": -72.43349852613004, "lon": 107.19254654799322, "alt_km": 1427.0255145807505, "timestamp": "2025-12-26T09:30:53.923545+00:00", "meta": {"OBJECT_NAME": "FENGYUN 1C DEB", "OBJECT_ID": "1999-025CPH", "EPOCH": "2025-12-16T11:57:41.696928", "MEAN_MOTION": 13.32153551, "ECCENTRICITY": 0.04281038, "INCLINATION": 97.6145, "RA_OF_ASC_NODE": 74.8269, "ARG_OF_PERICENTER": 103.3204, "MEAN_ANOMALY": 261.6022, "EPHEMERIS_TYPE": 0, "CLASSIFICATION_TYPE": "U", "NORAD_CAT_ID": 31980, "ELEMENT_SET_NO": 999, "REV_AT_EPOCH": 89720, "BSTAR": 0.00040322723, "MEAN_MOTION_DOT": 3.01e-06, "MEAN_MOTION_DDOT": 0}, "tle": {"line1": "1 31980U 99025CPH 25350.49839927  .00000301  00000+0  40323-3 0  9990", "line2": "2 31980  97.6145  74.8269 0428103 103.3204 261.6022 13.32153551897206"}}, "geometry": {"type": "Point", "coordinates": [107.19254654799322, -72.43349852613004]}}, {"type": "Feature", "properties": {"norad_id": 31984, "name": "FENGYUN 1C DEB", "group": "fengyun-1c-debris", "lat": 58.988921806854485, "lon": -10.158613039242235, "alt_km": 836.7699804962767, "timestamp": "2025-12-26T09:30:53.923555+00:00", "meta": {"OBJECT_NAME": "FENGYUN 1C DEB", "OBJECT_ID": "1999-025CPM", "EPOCH": "2025-12-18T07:09:32.915232", "MEAN_MOTION": 14.22968839, "ECCENTRICITY": 0.00628019, "INCLINATION": 98.5578, "RA_OF_ASC_NODE": 356.4784, "ARG_OF_PERICENTER": 210.9858, "MEAN_ANOMALY": 148.7609, "EPHEMERIS_TYPE": 0, "CLASSIFICATION_TYPE": "U", "NORAD_CAT_ID": 31984, "ELEMENT_SET_NO": 999, "REV_AT_EPOCH": 94452, "BSTAR": 0.00030022048, "MEAN_MOTION_DOT": 6.47e-06, "MEAN_MOTION_DDOT": 0}, "tle": {"line1": "1 31984U 99025CPM 25352.29829763  .00000647  00000+0  30022-3 0  9999", "line2": "2 31984  98.5578 356.4784 0062801 210.9858 148.7609 14.22968839944527"}}, "geometry": {"type": "Point", "coordinates": [-10.158613039242235, 58.988921806854485]}}]}